{
  "norad_id": 65535,
  "name": "STARLINK-35133",
  "history": [
    {
      "epoch": "2026-03-28T18:20:41.090208Z",
      "apogee_km": 550.0215042858654,
      "perigee_km": 548.9751542457325,
      "latitude_deg": 3.04815951502117e-05,
      "longitude_deg": 57.29175888066926,
      "height_km": 553.0765664788585,
      "semi_major_axis_km": 6927.635329265799,
      "eccentricity": 7.552e-05,
      "inclination_deg": 97.6018,
      "raan_deg": 158.6431,
      "arg_perigee_deg": 168.7696,
      "mean_anomaly_deg": 191.3548,
      "mean_motion_rev_day": 15.05654181
    },
    {
      "epoch": "2026-03-29T03:54:53.013312Z",
      "apogee_km": 550.0106996775849,
      "perigee_km": 548.9729408803069,
      "latitude_deg": -3.1213622373818905e-05,
      "longitude_deg": -86.25783759671334,
      "height_km": 553.0694032133496,
      "semi_major_axis_km": 6927.628820278946,
      "eccentricity": 7.49e-05,
      "inclination_deg": 97.6018,
      "raan_deg": 159.0362,
      "arg_perigee_deg": 170.9695,
      "mean_anomaly_deg": 189.1545,
      "mean_motion_rev_day": 15.05656303
    },
    {
      "epoch": "2026-03-30T03:50:21.450336Z",
      "apogee_km": 549.9681911103953,
      "perigee_km": 548.9708928726113,
      "latitude_deg": 3.013233259129979e-05,
      "longitude_deg": -85.12707973467874,
      "height_km": 552.8171306261305,
      "semi_major_axis_km": 6927.606541991503,
      "eccentricity": 7.198e-05,
      "inclination_deg": 97.6016,
      "raan_deg": 160.018,
      "arg_perigee_deg": 235.6356,
      "mean_anomaly_deg": 124.4803,
      "mean_motion_rev_day": 15.05663566
    },
    {
      "epoch": "2026-03-30T18:11:40.103520Z",
      "apogee_km": 550.1238461847715,
      "perigee_km": 548.9335346658436,
      "latitude_deg": 1.8059653933214722e-05,
      "longitude_deg": 59.54615460579579,
      "height_km": 552.9395207888656,
      "semi_major_axis_km": 6927.665690425308,
      "eccentricity": 8.591e-05,
      "inclination_deg": 97.6017,
      "raan_deg": 160.6085,
      "arg_perigee_deg": 125.6226,
      "mean_anomaly_deg": 234.5081,
      "mean_motion_rev_day": 15.05644283
    },
    {
      "epoch": "2026-03-31T03:45:52.895808Z",
      "apogee_km": 549.6831353468397,
      "perigee_km": 549.4832013427813,
      "latitude_deg": -4.592429676341527e-06,
      "longitude_deg": -84.00897806071312,
      "height_km": 552.7458808241994,
      "semi_major_axis_km": 6927.72016834481,
      "eccentricity": 1.443e-05,
      "inclination_deg": 97.601,
      "raan_deg": 160.9997,
      "arg_perigee_deg": 192.8447,
      "mean_anomaly_deg": 167.2776,
      "mean_motion_rev_day": 15.05626523
    },
    {
      "epoch": "2026-04-01T13:15:35.417664Z",
      "apogee_km": 550.0592837342174,
      "perigee_km": 548.9453193345298,
      "latitude_deg": -2.6058467008171036e-05,
      "longitude_deg": 133.56475552967646,
      "height_km": 553.1215586186454,
      "semi_major_axis_km": 6927.639301534373,
      "eccentricity": 8.04e-05,
      "inclination_deg": 97.6019,
      "raan_deg": 162.3762,
      "arg_perigee_deg": 174.1366,
      "mean_anomaly_deg": 185.987,
      "mean_motion_rev_day": 15.05652886
    },
    {
      "epoch": "2026-04-02T03:36:52.936416Z",
      "apogee_km": 550.0006779476143,
      "perigee_km": 548.9120759243633,
      "latitude_deg": -2.8326821255598326e-05,
      "longitude_deg": -81.75847172395551,
      "height_km": 553.0660068338185,
      "semi_major_axis_km": 6927.593376935989,
      "eccentricity": 7.857e-05,
      "inclination_deg": 97.6018,
      "raan_deg": 162.9655,
      "arg_perigee_deg": 180.3632,
      "mean_anomaly_deg": 179.7594,
      "mean_motion_rev_day": 15.05667858
    },
    {
      "epoch": "2026-04-02T22:45:16.610688Z",
      "apogee_km": 549.8533610182758,
      "perigee_km": 549.0300875626817,
      "latitude_deg": 1.4439132686807305e-05,
      "longitude_deg": -8.856567796833318,
      "height_km": 552.8902879362677,
      "semi_major_axis_km": 6927.578724290479,
      "eccentricity": 5.942e-05,
      "inclination_deg": 97.6034,
      "raan_deg": 163.7521,
      "arg_perigee_deg": 201.5006,
      "mean_anomaly_deg": 158.6196,
      "mean_motion_rev_day": 15.05672635
    },
    {
      "epoch": "2026-04-03T17:53:40.809408Z",
      "apogee_km": 549.9366098001465,
      "perigee_km": 549.1607090062926,
      "latitude_deg": 2.455096205219538e-05,
      "longitude_deg": 64.04294870540045,
      "height_km": 552.9660706150569,
      "semi_major_axis_km": 6927.685659403219,
      "eccentricity": 5.6e-05,
      "inclination_deg": 97.6027,
      "raan_deg": 164.5385,
      "arg_perigee_deg": 204.9138,
      "mean_anomaly_deg": 155.2062,
      "mean_motion_rev_day": 15.05637773
    },
    {
      "epoch": "2026-04-04T16:13:29.529408Z",
      "apogee_km": 549.9246957621099,
      "perigee_km": 549.10861816132,
      "latitude_deg": -9.214667090258247e-05,
      "longitude_deg": 89.08959480745071,
      "height_km": 552.9897258609656,
      "semi_major_axis_km": 6927.653656961715,
      "eccentricity": 5.89e-05,
      "inclination_deg": 97.6027,
      "raan_deg": 165.4552,
      "arg_perigee_deg": 178.2029,
      "mean_anomaly_deg": 181.9199,
      "mean_motion_rev_day": 15.05648206
    },
    {
      "epoch": "2026-04-05T11:21:53.106048Z",
      "apogee_km": 549.8119457833654,
      "perigee_km": 549.1214022491404,
      "latitude_deg": -1.788387379800303e-07,
      "longitude_deg": 161.99169840388393,
      "height_km": 552.8770997182745,
      "semi_major_axis_km": 6927.603674016253,
      "eccentricity": 4.984e-05,
      "inclination_deg": 97.603,
      "raan_deg": 166.2416,
      "arg_perigee_deg": 178.7936,
      "mean_anomaly_deg": 181.3292,
      "mean_motion_rev_day": 15.05664501
    },
    {
      "epoch": "2026-04-05T17:44:41.123040Z",
      "apogee_km": 549.9422761940705,
      "perigee_km": 549.0264446502233,
      "latitude_deg": 4.661282641492785e-05,
      "longitude_deg": 66.29110343281502,
      "height_km": 552.9836698906686,
      "semi_major_axis_km": 6927.621360422147,
      "eccentricity": 6.61e-05,
      "inclination_deg": 97.6028,
      "raan_deg": 166.5031,
      "arg_perigee_deg": 198.7005,
      "mean_anomaly_deg": 161.4198,
      "mean_motion_rev_day": 15.05658735
    },
    {
      "epoch": "2026-04-06T04:54:35.131392Z",
      "apogee_km": 549.9145076523,
      "perigee_km": 549.0631024408594,
      "latitude_deg": -5.260484117201706e-05,
      "longitude_deg": -101.18364952293766,
      "height_km": 552.9795814410895,
      "semi_major_axis_km": 6927.625805046579,
      "eccentricity": 6.145e-05,
      "inclination_deg": 97.6027,
      "raan_deg": 166.9619,
      "arg_perigee_deg": 181.8628,
      "mean_anomaly_deg": 178.2596,
      "mean_motion_rev_day": 15.05657286
    },
    {
      "epoch": "2026-04-07T11:12:53.131104Z",
      "apogee_km": 549.8507597229791,
      "perigee_km": 549.1226664707328,
      "latitude_deg": -5.411884307823151e-05,
      "longitude_deg": 164.24206641228656,
      "height_km": 552.8996004870667,
      "semi_major_axis_km": 6927.623713096856,
      "eccentricity": 5.255e-05,
      "inclination_deg": 97.6032,
      "raan_deg": 168.2072,
      "arg_perigee_deg": 162.8606,
      "mean_anomaly_deg": 197.2638,
      "mean_motion_rev_day": 15.05657968
    },
    {
      "epoch": "2026-04-07T17:35:41.323488Z",
      "apogee_km": 549.9072120884257,
      "perigee_km": 549.0952928852339,
      "latitude_deg": 4.0864529601062305e-05,
      "longitude_deg": 68.5405319395439,
      "height_km": 552.9623123789546,
      "semi_major_axis_km": 6927.6382524868295,
      "eccentricity": 5.86e-05,
      "inclination_deg": 97.6025,
      "raan_deg": 168.4685,
      "arg_perigee_deg": 167.2831,
      "mean_anomaly_deg": 192.8411,
      "mean_motion_rev_day": 15.05653228
    },
    {
      "epoch": "2026-04-08T11:08:23.149248Z",
      "apogee_km": 549.9090708561807,
      "perigee_km": 549.0731832463707,
      "latitude_deg": 3.815110959506263e-05,
      "longitude_deg": 165.3666105248914,
      "height_km": 552.9583086498608,
      "semi_major_axis_km": 6927.628127051275,
      "eccentricity": 6.033e-05,
      "inclination_deg": 97.6029,
      "raan_deg": 169.1894,
      "arg_perigee_deg": 164.2142,
      "mean_anomaly_deg": 195.9104,
      "mean_motion_rev_day": 15.05656529
    },
    {
      "epoch": "2026-04-09T19:02:23.318880Z",
      "apogee_km": 550.0020215361865,
      "perigee_km": 548.9975142048461,
      "latitude_deg": -1.276165066505196e-06,
      "longitude_deg": 46.866216613342196,
      "height_km": 553.0433305696808,
      "semi_major_axis_km": 6927.636767870516,
      "eccentricity": 7.25e-05,
      "inclination_deg": 97.6027,
      "raan_deg": 170.4998,
      "arg_perigee_deg": 162.3544,
      "mean_anomaly_deg": 197.7708,
      "mean_motion_rev_day": 15.05653712
    },
    {
      "epoch": "2026-04-10T10:59:23.339328Z",
      "apogee_km": 550.0509346789695,
      "perigee_km": 548.9397424518647,
      "latitude_deg": 1.4820346542630546e-05,
      "longitude_deg": 167.61658412580096,
      "height_km": 553.0738644199932,
      "semi_major_axis_km": 6927.632338565417,
      "eccentricity": 8.02e-05,
      "inclination_deg": 97.6024,
      "raan_deg": 171.1553,
      "arg_perigee_deg": 157.6069,
      "mean_anomaly_deg": 202.5193,
      "mean_motion_rev_day": 15.05655156
    },
    {
      "epoch": "2026-04-11T18:53:23.195328Z",
      "apogee_km": 550.0819161353593,
      "perigee_km": 548.893135766707,
      "latitude_deg": 3.5487469222278905e-05,
      "longitude_deg": 49.11569405994849,
      "height_km": 553.0414925512073,
      "semi_major_axis_km": 6927.624525951033,
      "eccentricity": 8.58e-05,
      "inclination_deg": 97.6008,
      "raan_deg": 172.4639,
      "arg_perigee_deg": 145.4192,
      "mean_anomaly_deg": 214.7091,
      "mean_motion_rev_day": 15.05657703
    }
  ]
}